DMSP 5D-3 F16 (USA 172) 
1 28054U 03048A   26165.85274582  .00000013  00000+0  30575-4 0  9992
2 28054  98.9891 189.6656 0007652 146.3132  29.0544 14.14482992169156
METEOSAT-9 (MSG-2)      
1 28912U 05049B   26165.84026059  .00000122  00000+0  00000+0 0  9997
2 28912   9.3563  54.1909 0001548 346.0583 211.0187  1.00270970  6973
DMSP 5D-3 F17 (USA 191) 
1 29522U 06050A   26165.83622315  .00000037  00000+0  41364-4 0  9992
2 29522  98.7378 172.4544 0011221  65.5492 294.6850 14.14992845 12092
FENGYUN 3A              
1 32958U 08026A   26165.86233873  .00000055  00000+0  46421-4 0  9993
2 32958  98.6883 106.7389 0009499 129.7141 230.4874 14.19570688935072
GOES 14                 
1 35491U 09033A   26165.85963862 -.00000278  00000+0  00000+0 0  9990
2 35491   1.6841  83.0685 0001706  10.6310 262.0958  1.00111502  6569
DMSP 5D-3 F18 (USA 210) 
1 35951U 09057A   26165.87816221  .00000190  00000+0  12174-3 0  9996
2 35951  98.9037 146.6523 0009864 256.8614 103.1458 14.14895515859262
EWS-G2 (GOES 15)        
1 36411U 10008A   26165.77259218  .00000023  00000+0  00000+0 0  9998
2 36411   1.2710  82.9013 0005377  42.1192 119.8710  1.00275745 59611
COMS 1                  
1 36744U 10032A   26165.84767858  .00000022  00000+0  00000+0 0  9995
2 36744   4.7989  75.3814 0011441  11.7083 204.0035  0.99162585 51063
FENGYUN 3B              
1 37214U 10059A   26165.91195692  .00000283  00000+0  16979-3 0  9991
2 37214  98.9625 211.9165 0021783 190.6153 294.7227 14.14842117807101
SUOMI NPP               
1 37849U 11061A   26165.87353084  .00000049  00000+0  44150-4 0  9998
2 37849  98.7954 106.7654 0001665  12.4011 347.7206 14.19516894758110
METEOSAT-10 (MSG-3)     
1 38552U 12035B   26165.33231080  .00000000  00000+0  00000+0 0  9992
2 38552   4.6648  61.0321 0001424 327.8422 353.7007  1.00276282 50823
METOP-B                 
1 38771U 12049A   26165.86671096  .00000092  00000+0  61968-4 0  9999
2 38771  98.6505 217.4121 0002374  25.3968 334.7325 14.21432096712939
INSAT-3D                
1 39216U 13038B   26165.85695196 -.00000335  00000+0  00000+0 0  9995
2 39216   1.9201  82.5677 0000547 307.9500 310.6563  1.00270189 47059
FENGYUN 3C              
1 39260U 13052A   26165.85293596  .00000040  00000+0  41533-4 0  9991
2 39260  98.4986 139.8349 0015361  34.0797 326.1361 14.15754525658234
METEOR-M 2              
1 40069U 14037A   26165.89312127  .00000036  00000+0  35910-4 0  9997
2 40069  98.5105 141.7122 0006826  50.1032 310.0745 14.21461200618994
HIMAWARI-8              
1 40267U 14060A   26165.85911862 -.00000270  00000+0  00000+0 0  9998
2 40267   0.0112 330.4245 0000967 116.1411 266.5311  1.00272345 42737
FENGYUN 2G              
1 40367U 14090A   26165.71607116 -.00000301  00000+0  00000+0 0  9996
2 40367   5.6311  72.8450 0004043 154.3346  33.2905  1.00273289 41976
METEOSAT-11 (MSG-4)     
1 40732U 15034A   26165.83315390  .00000068  00000+0  00000+0 0  9993
2 40732   3.1957  71.1241 0001766   9.8531 131.6818  1.00279627  7194
ELEKTRO-L 2             
1 41105U 15074A   26165.04412756 -.00000114  00000+0  00000+0 0  9992
2 41105   6.6845  70.5612 0000704 243.9352 309.2359  1.00270718 38471
SENTINEL-3A             
1 41335U 16011A   26165.83214288  .00000098  00000+0  58471-4 0  9996
2 41335  98.6249 233.2495 0001391 102.3380 257.7956 14.26739372537724
INSAT-3DR               
1 41752U 16054A   26165.84594523 -.00000071  00000+0  00000+0 0  9992
2 41752   0.1003  86.6948 0010636 187.2026   7.7579  1.00270793 35796
HIMAWARI-9              
1 41836U 16064A   26165.85920529 -.00000269  00000+0  00000+0 0  9995
2 41836   0.0508 146.6077 0000807 353.7668 212.8607  1.00269796 35184
GOES 16                 
1 41866U 16071A   26165.66800609 -.00000085  00000+0  00000+0 0  9997
2 41866   0.3347  85.5274 0000200 297.6173  15.6121  1.00270828 35071
FENGYUN 4A              
1 41882U 16077A   26165.85582529 -.00000353  00000+0  00000+0 0  9998
2 41882   2.3155  80.3074 0008700 153.1119 101.6033  1.00269779 34900
CYGFM05                 
1 41884U 16078A   26165.67827458  .00021186  00000+0  28816-3 0  9999
2 41884  34.9575 277.2022 0006760 125.1735 234.9624 15.56575412528360
CYGFM04                 
1 41885U 16078B   26165.59272529  .00027283  00000+0  30860-3 0  9990
2 41885  34.9324 245.5899 0006329 171.1834 188.9003 15.61388565528596
CYGFM02                 
1 41886U 16078C   26165.59836274  .00032073  00000+0  32246-3 0  9997
2 41886  34.9402 240.1637 0007349 172.2814 187.8027 15.64358647528762
CYGFM01                 
1 41887U 16078D   26165.73218905  .00022044  00000+0  29227-3 0  9991
2 41887  34.9404 277.9229 0006580 119.4000 240.7382 15.57251904528321
CYGFM08                 
1 41888U 16078E   26165.63187522  .00025736  00000+0  30819-3 0  9991
2 41888  34.9432 258.2339 0008011 152.5242 207.5908 15.59903380528570
CYGFM07                 
1 41890U 16078G   26165.65516750  .00025184  00000+0  30057-3 0  9996
2 41890  34.9444 246.4236 0006751 170.4422 189.6433 15.60005273528602
CYGFM03                 
1 41891U 16078H   26165.62616194  .00025393  00000+0  30321-3 0  9993
2 41891  34.9400 248.5547 0006143 157.6491 202.4503 15.59996653528578
