OBJECT_NAME,OBJECT_ID,EPOCH,MEAN_MOTION,ECCENTRICITY,INCLINATION,RA_OF_ASC_NODE,ARG_OF_PERICENTER,MEAN_ANOMALY,EPHEMERIS_TYPE,CLASSIFICATION_TYPE,NORAD_CAT_ID,ELEMENT_SET_NO,REV_AT_EPOCH,BSTAR,MEAN_MOTION_DOT,MEAN_MOTION_DDOT
DMSP 5D-3 F16 (USA 172),2003-048A,2026-06-14T20:27:57.238848,14.14482992,.0007652,98.9891,189.6656,146.3132,29.0544,0,U,28054,999,16915,.30575E-4,.13E-6,0
METEOSAT-9 (MSG-2),2005-049B,2026-06-14T20:09:58.514976,1.00270970,.0001548,9.3563,54.1909,346.0583,211.0187,0,U,28912,999,697,0,.122E-5,0
DMSP 5D-3 F17 (USA 191),2006-050A,2026-06-14T20:04:09.680160,14.14992845,.0011221,98.7378,172.4544,65.5492,294.6850,0,U,29522,999,1209,.41364E-4,.37E-6,0
FENGYUN 3A,2008-026A,2026-06-14T20:41:46.066272,14.19570688,.0009499,98.6883,106.7389,129.7141,230.4874,0,U,32958,999,93507,.46421E-4,.55E-6,0
GOES 14,2009-033A,2026-06-14T20:37:52.776768,1.00111502,.0001706,1.6841,83.0685,10.6310,262.0958,0,U,35491,999,656,0,-.278E-5,0
DMSP 5D-3 F18 (USA 210),2009-057A,2026-06-14T21:04:33.214944,14.14895515,.0009864,98.9037,146.6523,256.8614,103.1458,0,U,35951,999,85926,.12174E-3,.19E-5,0
EWS-G2 (GOES 15),2010-008A,2026-06-14T18:32:31.964352,1.00275745,.0005377,1.2710,82.9013,42.1192,119.8710,0,U,36411,999,5961,0,.23E-6,0
COMS 1,2010-032A,2026-06-14T20:20:39.429312,0.99162585,.0011441,4.7989,75.3814,11.7083,204.0035,0,U,36744,999,5106,0,.22E-6,0
FENGYUN 3B,2010-059A,2026-06-14T21:53:13.077888,14.14842117,.0021783,98.9625,211.9165,190.6153,294.7227,0,U,37214,999,80710,.16979E-3,.283E-5,0
SUOMI NPP,2011-061A,2026-06-14T20:57:53.064576,14.19516894,.0001665,98.7954,106.7654,12.4011,347.7206,0,U,37849,999,75811,.4415E-4,.49E-6,0
METEOSAT-10 (MSG-3),2012-035B,2026-06-14T07:58:31.653120,1.00276282,.00014244,4.6648,61.0321,327.8422,353.7007,0,U,38552,999,5082,0,0,0
METOP-B,2012-049A,2026-06-14T20:48:03.826944,14.21432096,.0002374,98.6505,217.4121,25.3968,334.7325,0,U,38771,999,71293,.61968E-4,.92E-6,0
INSAT-3D,2013-038B,2026-06-14T20:34:00.649344,1.00270189,.0000547,1.9201,82.5677,307.9500,310.6563,0,U,39216,999,4705,0,-.335E-5,0
FENGYUN 3C,2013-052A,2026-06-14T20:28:13.666944,14.15754525,.0015361,98.4986,139.8349,34.0797,326.1361,0,U,39260,999,65823,.41533E-4,.4E-6,0
METEOR-M 2,2014-037A,2026-06-14T21:26:05.677728,14.21461200,.0006826,98.5105,141.7122,50.1032,310.0745,0,U,40069,999,61899,.3591E-4,.36E-6,0
HIMAWARI-8,2014-060A,2026-06-14T20:37:07.848768,1.00272345,.0000967,0.0112,330.4245,116.1411,266.5311,0,U,40267,999,4273,0,-.27E-5,0
FENGYUN 2G,2014-090A,2026-06-14T17:11:08.548224,1.00273289,.0004043,5.6311,72.8450,154.3346,33.2905,0,U,40367,999,4197,0,-.301E-5,0
METEOSAT-11 (MSG-4),2015-034A,2026-06-14T19:59:44.496960,1.00279627,.0001766,3.1957,71.1241,9.8531,131.6818,0,U,40732,999,719,0,.68E-6,0
ELEKTRO-L 2,2015-074A,2026-06-14T01:03:32.621184,1.00270718,.00007046,6.6845,70.5612,243.9352,309.2359,0,U,41105,999,3847,0,-.114E-5,0
SENTINEL-3A,2016-011A,2026-06-14T19:58:17.144832,14.26739372,.0001391,98.6249,233.2495,102.3380,257.7956,0,U,41335,999,53772,.58471E-4,.98E-6,0
INSAT-3DR,2016-054A,2026-06-14T20:18:09.667872,1.00270793,.0010636,0.1003,86.6948,187.2026,7.7579,0,U,41752,999,3579,0,-.71E-6,0
HIMAWARI-9,2016-064A,2026-06-14T20:37:15.337056,1.00269796,.0000807,0.0508,146.6077,353.7668,212.8607,0,U,41836,999,3518,0,-.269E-5,0
GOES 16,2016-071A,2026-06-14T16:01:55.726176,1.00270828,.00002,0.3347,85.5274,297.6173,15.6121,0,U,41866,999,3507,0,-.85E-6,0
FENGYUN 4A,2016-077A,2026-06-14T20:32:23.305056,1.00269779,.00087,2.3155,80.3074,153.1119,101.6033,0,U,41882,999,3490,0,-.353E-5,0
CYGFM05,2016-078A,2026-06-14T16:16:42.923712,15.56575412,.000676,34.9575,277.2022,125.1735,234.9624,0,U,41884,999,52836,.28816E-3,.21186E-3,0
CYGFM04,2016-078B,2026-06-14T14:13:31.465056,15.61388565,.0006329,34.9324,245.5899,171.1834,188.9003,0,U,41885,999,52859,.3086E-3,.27283E-3,0
CYGFM02,2016-078C,2026-06-14T14:21:38.540736,15.64358647,.0007349,34.9402,240.1637,172.2814,187.8027,0,U,41886,999,52876,.32246E-3,.32073E-3,0
CYGFM01,2016-078D,2026-06-14T17:34:21.133920,15.57251904,.000658,34.9404,277.9229,119.4000,240.7382,0,U,41887,999,52832,.29227E-3,.22044E-3,0
CYGFM08,2016-078E,2026-06-14T15:09:54.019008,15.59903380,.0008011,34.9432,258.2339,152.5242,207.5908,0,U,41888,999,52857,.30819E-3,.25736E-3,0
CYGFM07,2016-078G,2026-06-14T15:43:26.472000,15.60005273,.0006751,34.9444,246.4236,170.4422,189.6433,0,U,41890,999,52860,.30057E-3,.25184E-3,0
CYGFM03,2016-078H,2026-06-14T15:01:40.391616,15.59996653,.0006143,34.9400,248.5547,157.6491,202.4503,0,U,41891,999,52857,.30321E-3,.25393E-3,0
